window._tle = "PEGASUS\n1 42784U 17036V   21213.39795446  .00001661  00000-0  69999-4 0  9998\n2 42784  97.2472 261.0296 0012064  29.3543 330.8370 15.24627076228201";
